start=new Date('2021-12-29T00:00:00.000Z').valueOf();
sats=[{"OBJECT_NAME":"STARLINK-2528","TIME_SYSTEM":"UTC","NORAD_CAT_ID":"48307","TLE_LINE2":"2 48307  53.0551 128.7376 0001553  89.5494 270.5673 15.06399001 37273","SEMIMAJOR_AXIS":"6925.352","TLE_LINE1":"1 48307U 21036AH  21362.75438854  .00001335  00000-0  10851-3 0  9992","RA_OF_ASC_NODE":"128.7376","RCS_SIZE":"LARGE","INCLINATION":"53.0551","EPOCH":"2021-12-28T18:06:19.169856","MEAN_ANOMALY":"270.5673","REV_AT_EPOCH":"3727","PERIAPSIS":"546.141","LAUNCH_DATE":"2021-04-29","PERIOD":"95.592","MEAN_MOTION_DOT":"0.00001335","REF_FRAME":"TEME","OBJECT_TYPE":"PAYLOAD","GP_ID":"192674454","CLASSIFICATION_TYPE":"U","ARG_OF_PERICENTER":"89.5494","ELEMENT_SET_NO":"999","APOAPSIS":"548.292","CENTER_NAME":"EARTH","EPHEMERIS_TYPE":"0","ECCENTRICITY":"0.00015530","MEAN_MOTION":"15.06399001","OBJECT_ID":"2021-036AH","BSTAR":"0.00010851000000","MEAN_ELEMENT_THEORY":"SGP4","FILE":"3254265","SITE":"AFETR","COUNTRY_CODE":"US","DECAY_DATE":null,"MEAN_MOTION_DDOT":"0.0000000000000"},{"LAUNCH_DATE":"2021-04-29","PERIAPSIS":"545.998","MEAN_MOTION_DOT":"0.00001560","PERIOD":"95.592","OBJECT_TYPE":"PAYLOAD","REF_FRAME":"TEME","MEAN_ANOMALY":"262.6198","REV_AT_EPOCH":"3729","INCLINATION":"53.0556","EPOCH":"2021-12-28T21:12:05.250240","TIME_SYSTEM":"UTC","OBJECT_NAME":"STARLINK-2532","SEMIMAJOR_AXIS":"6925.327","TLE_LINE2":"2 48308  53.0556 128.1677 0001724  97.4987 262.6198 15.06407133 37294","NORAD_CAT_ID":"48308","RCS_SIZE":"LARGE","RA_OF_ASC_NODE":"128.1677","TLE_LINE1":"1 48308U 21036AJ  21362.88339410  .00001560  00000-0  12358-3 0  9999","DECAY_DATE":null,"MEAN_MOTION_DDOT":"0.0000000000000","SITE":"AFETR","FILE":"3254265","COUNTRY_CODE":"US","MEAN_MOTION":"15.06407133","OBJECT_ID":"2021-036AJ","ECCENTRICITY":"0.00017240","BSTAR":"0.00012358000000","MEAN_ELEMENT_THEORY":"SGP4","GP_ID":"192675206","ELEMENT_SET_NO":"999","CLASSIFICATION_TYPE":"U","ARG_OF_PERICENTER":"97.4987","EPHEMERIS_TYPE":"0","CENTER_NAME":"EARTH","APOAPSIS":"548.386"},{"CENTER_NAME":"EARTH","APOAPSIS":"548.509","EPHEMERIS_TYPE":"0","CLASSIFICATION_TYPE":"U","ARG_OF_PERICENTER":"105.3585","ELEMENT_SET_NO":"999","GP_ID":"192675957","BSTAR":"0.00010525000000","MEAN_ELEMENT_THEORY":"SGP4","ECCENTRICITY":"0.00018960","OBJECT_ID":"2021-036AK","MEAN_MOTION":"15.06405657","COUNTRY_CODE":"US","SITE":"AFETR","FILE":"3254265","MEAN_MOTION_DDOT":"0.0000000000000","DECAY_DATE":null,"TLE_LINE1":"1 48309U 21036AK  21362.87970915  .00001287  00000-0  10525-3 0  9990","RA_OF_ASC_NODE":"128.1891","RCS_SIZE":"MEDIUM","NORAD_CAT_ID":"48309","TLE_LINE2":"2 48309  53.0543 128.1891 0001896 105.3585 254.7613 15.06405657 37295","SEMIMAJOR_AXIS":"6925.331","OBJECT_NAME":"STARLINK-2517","TIME_SYSTEM":"UTC","EPOCH":"2021-12-28T21:06:46.870560","INCLINATION":"53.0543","REV_AT_EPOCH":"3729","MEAN_ANOMALY":"254.7613","REF_FRAME":"TEME","OBJECT_TYPE":"PAYLOAD","PERIOD":"95.592","MEAN_MOTION_DOT":"0.00001287","LAUNCH_DATE":"2021-04-29","PERIAPSIS":"545.883"},{"REV_AT_EPOCH":"3729","MEAN_ANOMALY":"263.3787","OBJECT_TYPE":"PAYLOAD","REF_FRAME":"TEME","PERIAPSIS":"545.999","LAUNCH_DATE":"2021-04-29","MEAN_MOTION_DOT":"0.00003418","PERIOD":"95.592","RCS_SIZE":"LARGE","RA_OF_ASC_NODE":"128.1875","TLE_LINE1":"1 48310U 21036AL  21362.87602832  .00003418  00000-0  24825-3 0  9998","TIME_SYSTEM":"UTC","OBJECT_NAME":"STARLINK-2536","TLE_LINE2":"2 48310  53.0539 128.1875 0001746  96.7401 263.3787 15.06401825 37299","NORAD_CAT_ID":"48310","SEMIMAJOR_AXIS":"6925.343","EPOCH":"2021-12-28T21:01:28.846848","INCLINATION":"53.0539","COUNTRY_CODE":"US","SITE":"AFETR","FILE":"3254265","DECAY_DATE":null,"MEAN_MOTION_DDOT":"0.0000000000000","EPHEMERIS_TYPE":"0","APOAPSIS":"548.417","CENTER_NAME":"EARTH","GP_ID":"192674205","ELEMENT_SET_NO":"999","ARG_OF_PERICENTER":"96.7401","CLASSIFICATION_TYPE":"U","BSTAR":"0.00024825000000","MEAN_ELEMENT_THEORY":"SGP4","MEAN_MOTION":"15.06401825","OBJECT_ID":"2021-036AL","ECCENTRICITY":"0.00017460"},{"TIME_SYSTEM":"UTC","OBJECT_NAME":"STARLINK-2534","TLE_LINE2":"2 48311  53.0548 128.2214 0002096  99.9134 260.2091 15.06404710 37295","NORAD_CAT_ID":"48311","SEMIMAJOR_AXIS":"6925.334","RCS_SIZE":"LARGE","RA_OF_ASC_NODE":"128.2214","TLE_LINE1":"1 48311U 21036AM  21362.87234134  .00002796  00000-0  20654-3 0  9999","INCLINATION":"53.0548","EPOCH":"2021-12-28T20:56:10.291776","MEAN_ANOMALY":"260.2091","REV_AT_EPOCH":"3729","LAUNCH_DATE":"2021-04-29","PERIAPSIS":"545.748","MEAN_MOTION_DOT":"0.00002796","PERIOD":"95.592","OBJECT_TYPE":"PAYLOAD","REF_FRAME":"TEME","GP_ID":"192674955","ELEMENT_SET_NO":"999","ARG_OF_PERICENTER":"99.9134","CLASSIFICATION_TYPE":"U","EPHEMERIS_TYPE":"0","APOAPSIS":"548.651","CENTER_NAME":"EARTH","MEAN_MOTION":"15.06404710","OBJECT_ID":"2021-036AM","ECCENTRICITY":"0.00020960","BSTAR":"0.00020654000000","MEAN_ELEMENT_THEORY":"SGP4","SITE":"AFETR","FILE":"3254265","COUNTRY_CODE":"US","DECAY_DATE":null,"MEAN_MOTION_DDOT":"0.0000000000000"},{"MEAN_ELEMENT_THEORY":"SGP4","BSTAR":"0.00002442700000","OBJECT_ID":"2021-036AN","MEAN_MOTION":"15.06384398","ECCENTRICITY":"0.00017420","EPHEMERIS_TYPE":"0","CENTER_NAME":"EARTH","APOAPSIS":"548.468","GP_ID":"192675707","ELEMENT_SET_NO":"999","CLASSIFICATION_TYPE":"U","ARG_OF_PERICENTER":"98.4717","DECAY_DATE":null,"MEAN_MOTION_DDOT":"0.0000000000000","COUNTRY_CODE":"US","FILE":"3254265","SITE":"AFETR","EPOCH":"2021-12-28T19:15:20.702016","INCLINATION":"53.0540","RCS_SIZE":"LARGE","RA_OF_ASC_NODE":"128.5325","TLE_LINE1":"1 48312U 21036AN  21362.80232294  .00000082  00000-0  24427-4 0  9997","OBJECT_NAME":"STARLINK-2061","TIME_SYSTEM":"UTC","TLE_LINE2":"2 48312  53.0540 128.5325 0001742  98.4717 261.6469 15.06384398 37284","SEMIMAJOR_AXIS":"6925.396","NORAD_CAT_ID":"48312","OBJECT_TYPE":"PAYLOAD","REF_FRAME":"TEME","LAUNCH_DATE":"2021-04-29","PERIAPSIS":"546.055","MEAN_MOTION_DOT":"0.00000082","PERIOD":"95.593","REV_AT_EPOCH":"3728","MEAN_ANOMALY":"261.6469"},{"SEMIMAJOR_AXIS":"6925.353","TLE_LINE2":"2 48313  53.0536 128.5494 0001861  93.7126 266.4076 15.06398535 37275","NORAD_CAT_ID":"48313","OBJECT_NAME":"STARLINK-2541","TIME_SYSTEM":"UTC","RCS_SIZE":"LARGE","RA_OF_ASC_NODE":"128.5494","TLE_LINE1":"1 48313U 21036AP  21362.79862063  .00001291  00000-0  10553-3 0  9996","INCLINATION":"53.0536","EPOCH":"2021-12-28T19:10:00.822432","MEAN_ANOMALY":"266.4076","REV_AT_EPOCH":"3727","MEAN_MOTION_DOT":"0.00001291","PERIOD":"95.592","LAUNCH_DATE":"2021-04-29","PERIAPSIS":"545.929","OBJECT_TYPE":"PAYLOAD","REF_FRAME":"TEME","ELEMENT_SET_NO":"999","ARG_OF_PERICENTER":"93.7126","CLASSIFICATION_TYPE":"U","GP_ID":"192675457","EPHEMERIS_TYPE":"0","CENTER_NAME":"EARTH","APOAPSIS":"548.507","MEAN_MOTION":"15.06398535","OBJECT_ID":"2021-036AP","ECCENTRICITY":"0.00018610","BSTAR":"0.00010553000000","MEAN_ELEMENT_THEORY":"SGP4","SITE":"AFETR","FILE":"3254265","COUNTRY_CODE":"US","MEAN_MOTION_DDOT":"0.0000000000000","DECAY_DATE":null},{"MEAN_ELEMENT_THEORY":"SGP4","BSTAR":"0.00001661000000","ECCENTRICITY":"0.00019170","OBJECT_ID":"2021-036AQ","MEAN_MOTION":"15.06396957","CENTER_NAME":"EARTH","APOAPSIS":"548.550","EPHEMERIS_TYPE":"0","GP_ID":"192674706","CLASSIFICATION_TYPE":"U","ARG_OF_PERICENTER":"97.8849","ELEMENT_SET_NO":"999","DECAY_DATE":null,"MEAN_MOTION_DDOT":"0.0000000000000","COUNTRY_CODE":"US","FILE":"3254265","SITE":"AFETR","EPOCH":"2021-12-28T19:04:42.992256","INCLINATION":"53.0540","TLE_LINE1":"1 48314U 21036AQ  21362.79494204 -.00000034  00000-0  16610-4 0  9991","RA_OF_ASC_NODE":"128.5708","RCS_SIZE":"LARGE","TIME_SYSTEM":"UTC","OBJECT_NAME":"STARLINK-2549","TLE_LINE2":"2 48314  53.0540 128.5708 0001917  97.8849 262.2357 15.06396957 37270","NORAD_CAT_ID":"48314","SEMIMAJOR_AXIS":"6925.358","REF_FRAME":"TEME","OBJECT_TYPE":"PAYLOAD","PERIAPSIS":"545.895","LAUNCH_DATE":"2021-04-29","PERIOD":"95.592","MEAN_MOTION_DOT":"-0.00000034","REV_AT_EPOCH":"3727","MEAN_ANOMALY":"262.2357"},{"PERIAPSIS":"545.939","LAUNCH_DATE":"2021-04-29","MEAN_MOTION_DOT":"0.00000054","PERIOD":"95.592","OBJECT_TYPE":"PAYLOAD","REF_FRAME":"TEME","MEAN_ANOMALY":"257.1138","REV_AT_EPOCH":"3727","INCLINATION":"53.0559","EPOCH":"2021-12-28T18:59:25.214784","TIME_SYSTEM":"UTC","OBJECT_NAME":"STARLINK-2506","TLE_LINE2":"2 48315  53.0559 128.5878 0001853 103.0058 257.1138 15.06397172 37270","NORAD_CAT_ID":"48315","SEMIMAJOR_AXIS":"6925.357","RCS_SIZE":"LARGE","TLE_LINE1":"1 48315U 21036AR  21362.79126406  .00000054  00000-0  22565-4 0  9995","RA_OF_ASC_NODE":"128.5878","DECAY_DATE":null,"MEAN_MOTION_DDOT":"0.0000000000000","FILE":"3254265","SITE":"AFETR","COUNTRY_CODE":"US","OBJECT_ID":"2021-036AR","MEAN_MOTION":"15.06397172","ECCENTRICITY":"0.00018530","BSTAR":"0.00002256500000","MEAN_ELEMENT_THEORY":"SGP4","GP_ID":"192674455","ELEMENT_SET_NO":"999","CLASSIFICATION_TYPE":"U","ARG_OF_PERICENTER":"103.0058","EPHEMERIS_TYPE":"0","CENTER_NAME":"EARTH","APOAPSIS":"548.505"},{"INCLINATION":"53.0557","EPOCH":"2021-12-28T18:54:05.597856","NORAD_CAT_ID":"48316","TLE_LINE2":"2 48316  53.0557 128.6067 0001631  97.8726 262.2449 15.06397602 37276","SEMIMAJOR_AXIS":"6925.356","TIME_SYSTEM":"UTC","OBJECT_NAME":"STARLINK-2507","TLE_LINE1":"1 48316U 21036AS  21362.78756479  .00002054  00000-0  15673-3 0  9997","RA_OF_ASC_NODE":"128.6067","RCS_SIZE":"LARGE","PERIOD":"95.592","MEAN_MOTION_DOT":"0.00002054","LAUNCH_DATE":"2021-04-29","PERIAPSIS":"546.091","REF_FRAME":"TEME","OBJECT_TYPE":"PAYLOAD","MEAN_ANOMALY":"262.2449","REV_AT_EPOCH":"3727","ECCENTRICITY":"0.00016310","MEAN_MOTION":"15.06397602","OBJECT_ID":"2021-036AS","BSTAR":"0.00015673000000","MEAN_ELEMENT_THEORY":"SGP4","ARG_OF_PERICENTER":"97.8726","CLASSIFICATION_TYPE":"U","ELEMENT_SET_NO":"999","GP_ID":"192675207","APOAPSIS":"548.350","CENTER_NAME":"EARTH","EPHEMERIS_TYPE":"0","MEAN_MOTION_DDOT":"0.0000000000000","DECAY_DATE":null,"FILE":"3254265","SITE":"AFETR","COUNTRY_CODE":"US"}];
